start=new Date('2022-04-25T00:00:00.000Z').valueOf();
sats=[{"NORAD_CAT_ID":"45390","ARG_OF_PERICENTER":"49.8441","GP_ID":"201932347","BSTAR":"0.00011389000000","REF_FRAME":"TEME","RCS_SIZE":"LARGE","CENTER_NAME":"EARTH","PERIAPSIS":"545.927","MEAN_MOTION_DDOT":"0.0000000000000","ELEMENT_SET_NO":"999","EPOCH":"2022-04-24T10:34:30.295488","MEAN_ELEMENT_THEORY":"SGP4","OBJECT_NAME":"STARLINK-1284","MEAN_MOTION_DOT":"0.00001415","APOAPSIS":"548.459","CLASSIFICATION_TYPE":"U","COUNTRY_CODE":"US","MEAN_ANOMALY":"310.2708","INCLINATION":"53.0549","PERIOD":"95.592","TIME_SYSTEM":"UTC","RA_OF_ASC_NODE":"19.9215","FILE":"3414186","TLE_LINE1":"1 45390U 20019AG  22114.44062842  .00001415  00000-0  11389-3 0  9999","OBJECT_TYPE":"PAYLOAD","SEMIMAJOR_AXIS":"6925.328","LAUNCH_DATE":"2020-03-18","EPHEMERIS_TYPE":"0","DECAY_DATE":null,"REV_AT_EPOCH":"11669","TLE_LINE2":"2 45390  53.0549  19.9215 0001828  49.8441 310.2708 15.06406672116696","OBJECT_ID":"2020-019AG","ECCENTRICITY":"0.00018280","MEAN_MOTION":"15.06406672","SITE":"AFETR"},{"REF_FRAME":"TEME","RCS_SIZE":"LARGE","CENTER_NAME":"EARTH","ARG_OF_PERICENTER":"90.2723","NORAD_CAT_ID":"45391","BSTAR":"0.00007873600000","GP_ID":"201932597","PERIAPSIS":"546.292","MEAN_MOTION_DDOT":"0.0000000000000","ELEMENT_SET_NO":"999","MEAN_MOTION_DOT":"0.00000892","APOAPSIS":"548.094","EPOCH":"2022-04-24T10:55:43.958496","MEAN_ELEMENT_THEORY":"SGP4","OBJECT_NAME":"STARLINK-1289","COUNTRY_CODE":"US","MEAN_ANOMALY":"269.8415","INCLINATION":"53.0564","CLASSIFICATION_TYPE":"U","TIME_SYSTEM":"UTC","PERIOD":"95.592","OBJECT_TYPE":"PAYLOAD","SEMIMAJOR_AXIS":"6925.328","RA_OF_ASC_NODE":"19.8575","FILE":"3414186","TLE_LINE1":"1 45391U 20019AH  22114.45536989  .00000892  00000-0  78736-4 0  9997","TLE_LINE2":"2 45391  53.0564  19.8575 0001301  90.2723 269.8415 15.06406565116427","OBJECT_ID":"2020-019AH","EPHEMERIS_TYPE":"0","LAUNCH_DATE":"2020-03-18","DECAY_DATE":null,"REV_AT_EPOCH":"11642","MEAN_MOTION":"15.06406565","SITE":"AFETR","ECCENTRICITY":"0.00013010"},{"TIME_SYSTEM":"UTC","PERIOD":"95.259","SEMIMAJOR_AXIS":"6909.259","OBJECT_TYPE":"PAYLOAD","FILE":"3414186","TLE_LINE1":"1 45392U 20019AJ  22114.13456968  .00030262  00000-0  17684-2 0  9998","RA_OF_ASC_NODE":"13.2210","TLE_LINE2":"2 45392  52.9966  13.2210 0001339 112.0872 248.0261 15.11664827116448","OBJECT_ID":"2020-019AJ","DECAY_DATE":null,"REV_AT_EPOCH":"11644","LAUNCH_DATE":"2020-03-18","EPHEMERIS_TYPE":"0","MEAN_MOTION":"15.11664827","SITE":"AFETR","ECCENTRICITY":"0.00013390","CENTER_NAME":"EARTH","RCS_SIZE":"LARGE","REF_FRAME":"TEME","GP_ID":"201933848","BSTAR":"0.00176840000000","NORAD_CAT_ID":"45392","ARG_OF_PERICENTER":"112.0872","MEAN_MOTION_DDOT":"0.0000000000000","ELEMENT_SET_NO":"999","PERIAPSIS":"530.199","APOAPSIS":"532.050","MEAN_MOTION_DOT":"0.00030262","OBJECT_NAME":"STARLINK-1290","EPOCH":"2022-04-24T03:13:46.820352","MEAN_ELEMENT_THEORY":"SGP4","INCLINATION":"52.9966","COUNTRY_CODE":"US","MEAN_ANOMALY":"248.0261","CLASSIFICATION_TYPE":"U"},{"ECCENTRICITY":"0.00014340","MEAN_MOTION":"15.06394736","SITE":"AFETR","DECAY_DATE":null,"REV_AT_EPOCH":"11650","LAUNCH_DATE":"2020-03-18","EPHEMERIS_TYPE":"0","TLE_LINE2":"2 45393  53.0557  18.5264 0001434  88.8269 271.2884 15.06394736116509","OBJECT_ID":"2020-019AK","FILE":"3414521","TLE_LINE1":"1 45393U 20019AK  22114.75025158  .00000066  00000-0  23339-4 0  9995","RA_OF_ASC_NODE":"18.5264","SEMIMAJOR_AXIS":"6925.365","OBJECT_TYPE":"PAYLOAD","PERIOD":"95.592","TIME_SYSTEM":"UTC","CLASSIFICATION_TYPE":"U","INCLINATION":"53.0557","COUNTRY_CODE":"US","MEAN_ANOMALY":"271.2884","OBJECT_NAME":"STARLINK-1291","EPOCH":"2022-04-24T18:00:21.736512","MEAN_ELEMENT_THEORY":"SGP4","APOAPSIS":"548.223","MEAN_MOTION_DOT":"0.00000066","MEAN_MOTION_DDOT":"0.0000000000000","ELEMENT_SET_NO":"999","PERIAPSIS":"546.237","BSTAR":"0.00002333900000","GP_ID":"201946259","NORAD_CAT_ID":"45393","ARG_OF_PERICENTER":"88.8269","RCS_SIZE":"LARGE","CENTER_NAME":"EARTH","REF_FRAME":"TEME"},{"CLASSIFICATION_TYPE":"U","INCLINATION":"53.0563","MEAN_ANOMALY":"283.8730","COUNTRY_CODE":"US","OBJECT_NAME":"STARLINK-1292","EPOCH":"2022-04-24T10:45:08.415648","MEAN_ELEMENT_THEORY":"SGP4","APOAPSIS":"548.178","MEAN_MOTION_DOT":"0.00000495","MEAN_MOTION_DDOT":"0.0000000000000","ELEMENT_SET_NO":"999","PERIAPSIS":"546.316","GP_ID":"201932847","BSTAR":"0.00005214700000","NORAD_CAT_ID":"45394","ARG_OF_PERICENTER":"76.2408","CENTER_NAME":"EARTH","RCS_SIZE":"LARGE","REF_FRAME":"TEME","ECCENTRICITY":"0.00013440","SITE":"AFETR","MEAN_MOTION":"15.06389125","REV_AT_EPOCH":"11643","DECAY_DATE":null,"LAUNCH_DATE":"2020-03-18","EPHEMERIS_TYPE":"0","OBJECT_ID":"2020-019AL","TLE_LINE2":"2 45394  53.0563  19.8909 0001344  76.2408 283.8730 15.06389125116430","TLE_LINE1":"1 45394U 20019AL  22114.44801407  .00000495  00000-0  52147-4 0  9996","FILE":"3414186","RA_OF_ASC_NODE":"19.8909","SEMIMAJOR_AXIS":"6925.382","OBJECT_TYPE":"PAYLOAD","PERIOD":"95.593","TIME_SYSTEM":"UTC"},{"TIME_SYSTEM":"UTC","PERIOD":"95.592","SEMIMAJOR_AXIS":"6925.355","OBJECT_TYPE":"PAYLOAD","FILE":"3414528","TLE_LINE1":"1 45395U 20019AM  22114.74288123  .00000909  00000-0  79886-4 0  9993","RA_OF_ASC_NODE":"18.5742","TLE_LINE2":"2 45395  53.0570  18.5742 0001260  75.4009 284.7119 15.06397853116501","OBJECT_ID":"2020-019AM","DECAY_DATE":null,"REV_AT_EPOCH":"11650","LAUNCH_DATE":"2020-03-18","EPHEMERIS_TYPE":"0","MEAN_MOTION":"15.06397853","SITE":"AFETR","ECCENTRICITY":"0.00012600","CENTER_NAME":"EARTH","RCS_SIZE":"LARGE","REF_FRAME":"TEME","GP_ID":"201946291","BSTAR":"0.00007988600000","NORAD_CAT_ID":"45395","ARG_OF_PERICENTER":"75.4009","MEAN_MOTION_DDOT":"0.0000000000000","ELEMENT_SET_NO":"999","PERIAPSIS":"546.348","APOAPSIS":"548.093","MEAN_MOTION_DOT":"0.00000909","OBJECT_NAME":"STARLINK-1297","MEAN_ELEMENT_THEORY":"SGP4","EPOCH":"2022-04-24T17:49:44.938272","INCLINATION":"53.0570","MEAN_ANOMALY":"284.7119","COUNTRY_CODE":"US","CLASSIFICATION_TYPE":"U"},{"REF_FRAME":"TEME","RCS_SIZE":"LARGE","CENTER_NAME":"EARTH","ARG_OF_PERICENTER":"85.9621","NORAD_CAT_ID":"45396","GP_ID":"201933349","BSTAR":"0.00006649500000","PERIAPSIS":"546.388","MEAN_MOTION_DDOT":"0.0000000000000","ELEMENT_SET_NO":"999","MEAN_MOTION_DOT":"0.00000709","APOAPSIS":"548.026","MEAN_ELEMENT_THEORY":"SGP4","EPOCH":"2022-04-24T11:01:02.820288","OBJECT_NAME":"STARLINK-1303","MEAN_ANOMALY":"274.1503","COUNTRY_CODE":"US","INCLINATION":"53.0562","CLASSIFICATION_TYPE":"U","TIME_SYSTEM":"UTC","PERIOD":"95.592","OBJECT_TYPE":"PAYLOAD","SEMIMAJOR_AXIS":"6925.342","RA_OF_ASC_NODE":"19.8280","TLE_LINE1":"1 45396U 20019AN  22114.45906042  .00000709  00000-0  66495-4 0  9999","FILE":"3414186","OBJECT_ID":"2020-019AN","TLE_LINE2":"2 45396  53.0562  19.8280 0001183  85.9621 274.1503 15.06402089116412","EPHEMERIS_TYPE":"0","LAUNCH_DATE":"2020-03-18","REV_AT_EPOCH":"11641","DECAY_DATE":null,"SITE":"AFETR","MEAN_MOTION":"15.06402089","ECCENTRICITY":"0.00011830"},{"MEAN_MOTION_DDOT":"0.0000000000000","ELEMENT_SET_NO":"999","PERIAPSIS":"546.305","CENTER_NAME":"EARTH","RCS_SIZE":"LARGE","REF_FRAME":"TEME","BSTAR":"-0.00000562520000","GP_ID":"201934099","NORAD_CAT_ID":"45397","ARG_OF_PERICENTER":"91.9397","INCLINATION":"53.0547","MEAN_ANOMALY":"268.1744","COUNTRY_CODE":"US","CLASSIFICATION_TYPE":"U","APOAPSIS":"548.144","MEAN_MOTION_DOT":"-0.00000365","OBJECT_NAME":"STARLINK-1307","EPOCH":"2022-04-24T12:52:31.211904","MEAN_ELEMENT_THEORY":"SGP4","SEMIMAJOR_AXIS":"6925.360","OBJECT_TYPE":"PAYLOAD","TLE_LINE1":"1 45397U 20019AP  22114.53647236 -.00000365  00000-0 -56252-5 0  9997","FILE":"3414186","RA_OF_ASC_NODE":"19.4797","TIME_SYSTEM":"UTC","PERIOD":"95.592","SITE":"AFETR","MEAN_MOTION":"15.06396336","ECCENTRICITY":"0.00013280","OBJECT_ID":"2020-019AP","TLE_LINE2":"2 45397  53.0547  19.4797 0001328  91.9397 268.1744 15.06396336116533","REV_AT_EPOCH":"11653","DECAY_DATE":null,"EPHEMERIS_TYPE":"0","LAUNCH_DATE":"2020-03-18"},{"PERIOD":"95.592","TIME_SYSTEM":"UTC","RA_OF_ASC_NODE":"18.3167","FILE":"3414567","TLE_LINE1":"1 45398U 20019AQ  22114.79448272  .00000548  00000-0  55668-4 0  9995","OBJECT_TYPE":"PAYLOAD","SEMIMAJOR_AXIS":"6925.336","LAUNCH_DATE":"2020-03-18","EPHEMERIS_TYPE":"0","DECAY_DATE":null,"REV_AT_EPOCH":"11650","TLE_LINE2":"2 45398  53.0551  18.3167 0001368  89.3585 270.7561 15.06403936116500","OBJECT_ID":"2020-019AQ","ECCENTRICITY":"0.00013680","MEAN_MOTION":"15.06403936","SITE":"AFETR","NORAD_CAT_ID":"45398","ARG_OF_PERICENTER":"89.3585","BSTAR":"0.00005566800000","GP_ID":"201946304","REF_FRAME":"TEME","RCS_SIZE":"LARGE","CENTER_NAME":"EARTH","PERIAPSIS":"546.254","ELEMENT_SET_NO":"999","MEAN_MOTION_DDOT":"0.0000000000000","EPOCH":"2022-04-24T19:04:03.307008","MEAN_ELEMENT_THEORY":"SGP4","OBJECT_NAME":"STARLINK-1312","MEAN_MOTION_DOT":"0.00000548","APOAPSIS":"548.149","CLASSIFICATION_TYPE":"U","MEAN_ANOMALY":"270.7561","COUNTRY_CODE":"US","INCLINATION":"53.0551"},{"MEAN_MOTION":"15.06396018","SITE":"AFETR","ECCENTRICITY":"0.00017990","TLE_LINE2":"2 45399  53.0530   8.7309 0001799  56.8628 303.2533 15.06396018116686","OBJECT_ID":"2020-019AR","LAUNCH_DATE":"2020-03-18","EPHEMERIS_TYPE":"0","DECAY_DATE":null,"REV_AT_EPOCH":"11668","OBJECT_TYPE":"PAYLOAD","SEMIMAJOR_AXIS":"6925.361","RA_OF_ASC_NODE":"8.7309","FILE":"3414514","TLE_LINE1":"1 45399U 20019AR  22114.70325810  .00000300  00000-0  39040-4 0  9991","TIME_SYSTEM":"UTC","PERIOD":"95.592","COUNTRY_CODE":"US","MEAN_ANOMALY":"303.2533","INCLINATION":"53.0530","CLASSIFICATION_TYPE":"U","MEAN_MOTION_DOT":"0.00000300","APOAPSIS":"548.472","MEAN_ELEMENT_THEORY":"SGP4","EPOCH":"2022-04-24T16:52:41.499840","OBJECT_NAME":"STARLINK-1255","PERIAPSIS":"545.980","ELEMENT_SET_NO":"999","MEAN_MOTION_DDOT":"0.0000000000000","REF_FRAME":"TEME","RCS_SIZE":"LARGE","CENTER_NAME":"EARTH","ARG_OF_PERICENTER":"56.8628","NORAD_CAT_ID":"45399","GP_ID":"201946150","BSTAR":"0.00003904000000"}];
